{"type": "FeatureCollection", "features": [ {"type": "Feature", "properties": {"norad_id": 29750, "name": "FENGYUN 1C DEB", "group": "fengyun-1c-debris", "lat": 49.17996299521487, "lon": -155.2721652283153, "alt_km": 881.4643928197556, "timestamp": "2025-12-11T07:02:24.001233+00:00", "meta": {"OBJECT_NAME": "FENGYUN 1C DEB", "OBJECT_ID": "1999-025AQ", "EPOCH": "2025-12-10T08:21:18.218592", "MEAN_MOTION": 14.09640573, "ECCENTRICITY": 0.00351373, "INCLINATION": 98.7548, "RA_OF_ASC_NODE": 13.5323, "ARG_OF_PERICENTER": 308.3507, "MEAN_ANOMALY": 67.6704, "EPHEMERIS_TYPE": 0, "CLASSIFICATION_TYPE": "U", "NORAD_CAT_ID": 29750, "ELEMENT_SET_NO": 999, "REV_AT_EPOCH": 97040, "BSTAR": 0.00032501527, "MEAN_MOTION_DOT": 5.3e-06, "MEAN_MOTION_DDOT": 0}, "tle": {"line1": "1 29750U 99025AQ  25344.34812753  .00000530  00000+0  32502-3 0  9991", "line2": "2 29750  98.7548  13.5323 0035137 308.3507  67.6704 14.09640573970407"}}, "geometry": {"type": "Point", "coordinates": [-155.2721652283153, 49.17996299521487]}}, {"type": "Feature", "properties": {"norad_id": 29751, "name": "FENGYUN 1C DEB", "group": "fengyun-1c-debris", "lat": -14.68967375824695, "lon": -169.05052512828172, "alt_km": 777.0284282839493, "timestamp": "2025-12-11T07:02:24.001244+00:00", "meta": {"OBJECT_NAME": "FENGYUN 1C DEB", "OBJECT_ID": "1999-025AR", "EPOCH": "2025-12-10T20:50:19.771296", "MEAN_MOTION": 14.2362686, "ECCENTRICITY": 0.00898364, "INCLINATION": 98.5417, "RA_OF_ASC_NODE": 12.7947, "ARG_OF_PERICENTER": 144.6284, "MEAN_ANOMALY": 32.1496, "EPHEMERIS_TYPE": 0, "CLASSIFICATION_TYPE": "U", "NORAD_CAT_ID": 29751, "ELEMENT_SET_NO": 999, "REV_AT_EPOCH": 98046, "BSTAR": 0.00022803158, "MEAN_MOTION_DOT": 5e-06, "MEAN_MOTION_DDOT": 0}, "tle": {"line1": "1 29751U 99025AR  25344.86828439  .00000500  00000+0  22803-3 0  9997", "line2": "2 29751  98.5417  12.7947 0089836 144.6284  32.1496 14.23626860980463"}}, "geometry": {"type": "Point", "coordinates": [-169.05052512828172, -14.68967375824695]}}, {"type": "Feature", "properties": {"norad_id": 29754, "name": "FENGYUN 1C DEB", "group": "fengyun-1c-debris", "lat": -8.433841085693384, "lon": 89.35787702927135, "alt_km": 840.1321383838949, "timestamp": "2025-12-11T07:02:24.001254+00:00", "meta": {"OBJECT_NAME": "FENGYUN 1C DEB", "OBJECT_ID": "1999-025AU", "EPOCH": "2025-12-10T18:16:02.108928", "MEAN_MOTION": 14.19137976, "ECCENTRICITY": 0.00358317, "INCLINATION": 98.8838, "RA_OF_ASC_NODE": 87.4957, "ARG_OF_PERICENTER": 245.0134, "MEAN_ANOMALY": 268.7526, "EPHEMERIS_TYPE": 0, "CLASSIFICATION_TYPE": "U", "NORAD_CAT_ID": 29754, "ELEMENT_SET_NO": 999, "REV_AT_EPOCH": 97326, "BSTAR": 0.0015635751, "MEAN_MOTION_DOT": 3.248e-05, "MEAN_MOTION_DDOT": 0}, "tle": {"line1": "1 29754U 99025AU  25344.76113552  .00003248  00000+0  15636-2 0  9999", "line2": "2 29754  98.8838  87.4957 0035831 245.0134 268.7526 14.19137976973263"}}, "geometry": {"type": "Point", "coordinates": [89.35787702927135, -8.433841085693384]}}, {"type": "Feature", "properties": {"norad_id": 29758, "name": "FENGYUN 1C DEB", "group": "fengyun-1c-debris", "lat": -17.45320812389061, "lon": -81.8544780802428, "alt_km": 766.4213097607053, "timestamp": "2025-12-11T07:02:24.001264+00:00", "meta": {"OBJECT_NAME": "FENGYUN 1C DEB", "OBJECT_ID": "1999-025AY", "EPOCH": "2025-12-10T07:02:34.251936", "MEAN_MOTION": 14.40923255, "ECCENTRICITY": 0.0020826, "INCLINATION": 98.8548, "RA_OF_ASC_NODE": 99.9199, "ARG_OF_PERICENTER": 315.0914, "MEAN_ANOMALY": 98.8923, "EPHEMERIS_TYPE": 0, "CLASSIFICATION_TYPE": "U", "NORAD_CAT_ID": 29758, "ELEMENT_SET_NO": 999, "REV_AT_EPOCH": 97636, "BSTAR": 0.0040418, "MEAN_MOTION_DOT": 0.00012981, "MEAN_MOTION_DDOT": 0}, "tle": {"line1": "1 29758U 99025AY  25344.29345199  .00012981  00000+0  40418-2 0  9995", "line2": "2 29758  98.8548  99.9199 0020826 315.0914  98.8923 14.40923255976367"}}, "geometry": {"type": "Point", "coordinates": [-81.8544780802428, -17.45320812389061]}}, {"type": "Feature", "properties": {"norad_id": 29760, "name": "FENGYUN 1C DEB", "group": "fengyun-1c-debris", "lat": 81.19715260675746, "lon": -97.31666951830456, "alt_km": 853.9529807984854, "timestamp": "2025-12-11T07:02:24.001274+00:00", "meta": {"OBJECT_NAME": "FENGYUN 1C DEB", "OBJECT_ID": "1999-025BA", "EPOCH": "2025-12-10T18:40:30.062208", "MEAN_MOTION": 14.08287187, "ECCENTRICITY": 0.01307411, "INCLINATION": 98.762, "RA_OF_ASC_NODE": 347.0015, "ARG_OF_PERICENTER": 179.0977, "MEAN_ANOMALY": 181.0453, "EPHEMERIS_TYPE": 0, "CLASSIFICATION_TYPE": "U", "NORAD_CAT_ID": 29760, "ELEMENT_SET_NO": 999, "REV_AT_EPOCH": 97065, "BSTAR": 0.00022738323, "MEAN_MOTION_DOT": 3.78e-06, "MEAN_MOTION_DDOT": 0}, "tle": {"line1": "1 29760U 99025BA  25344.77812572  .00000378  00000+0  22738-3 0  9998", "line2": "2 29760  98.7620 347.0015 0130741 179.0977 181.0453 14.08287187970659"}}, "geometry": {"type": "Point", "coordinates": [-97.31666951830456, 81.19715260675746]}}, {"type": "Feature", "properties": {"norad_id": 29762, "name": "FENGYUN 1C DEB", "group": "fengyun-1c-debris", "lat": -17.38731582553587, "lon": -29.168700093158833, "alt_km": 674.7966166548467, "timestamp": "2025-12-11T07:02:24.001285+00:00", "meta": {"OBJECT_NAME": "FENGYUN 1C DEB", "OBJECT_ID": "1999-025BC", "EPOCH": "2025-12-10T11:26:43.913760", "MEAN_MOTION": 14.22574716, "ECCENTRICITY": 0.02041267, "INCLINATION": 98.5796, "RA_OF_ASC_NODE": 327.3262, "ARG_OF_PERICENTER": 342.2452, "MEAN_ANOMALY": 141.3532, "EPHEMERIS_TYPE": 0, "CLASSIFICATION_TYPE": "U", "NORAD_CAT_ID": 29762, "ELEMENT_SET_NO": 999, "REV_AT_EPOCH": 97916, "BSTAR": 0.00070387693, "MEAN_MOTION_DOT": 1.899e-05, "MEAN_MOTION_DDOT": 0}, "tle": {"line1": "1 29762U 99025BC  25344.47689715  .00001899  00000+0  70388-3 0  9991", "line2": "2 29762  98.5796 327.3262 0204126 342.2452 141.3532 14.22574716979164"}}, "geometry": {"type": "Point", "coordinates": [-29.168700093158833, -17.38731582553587]}}, {"type": "Feature", "properties": {"norad_id": 29763, "name": "FENGYUN 1C DEB", "group": "fengyun-1c-debris", "lat": -72.39366850885764, "lon": -6.183348266646004, "alt_km": 890.0229326415074, "timestamp": "2025-12-11T07:02:24.001295+00:00", "meta": {"OBJECT_NAME": "FENGYUN 1C DEB", "OBJECT_ID": "1999-025BD", "EPOCH": "2025-12-10T11:30:35.712864", "MEAN_MOTION": 14.07874119, "ECCENTRICITY": 0.01272582, "INCLINATION": 98.7609, "RA_OF_ASC_NODE": 323.9532, "ARG_OF_PERICENTER": 186.8857, "MEAN_ANOMALY": 294.9512, "EPHEMERIS_TYPE": 0, "CLASSIFICATION_TYPE": "U", "NORAD_CAT_ID": 29763, "ELEMENT_SET_NO": 999, "REV_AT_EPOCH": 97018, "BSTAR": 0.00034315446, "MEAN_MOTION_DOT": 5.84e-06, "MEAN_MOTION_DDOT": 0}, "tle": {"line1": "1 29763U 99025BD  25344.47958001  .00000584  00000+0  34315-3 0  9999", "line2": "2 29763  98.7609 323.9532 0127258 186.8857 294.9512 14.07874119970182"}}, "geometry": {"type": "Point", "coordinates": [-6.183348266646004, -72.39366850885764]}}, {"type": "Feature", "properties": {"norad_id": 29765, "name": "FENGYUN 1C DEB", "group": "fengyun-1c-debris", "lat": -17.20805463837707, "lon": -179.23529329368134, "alt_km": 899.0280319407575, "timestamp": "2025-12-11T07:02:24.001305+00:00", "meta": {"OBJECT_NAME": "FENGYUN 1C DEB", "OBJECT_ID": "1999-025BF", "EPOCH": "2025-12-10T18:57:59.320224", "MEAN_MOTION": 14.02152651, "ECCENTRICITY": 0.00598344, "INCLINATION": 98.8308, "RA_OF_ASC_NODE": 3.037, "ARG_OF_PERICENTER": 97.9776, "MEAN_ANOMALY": 80.7185, "EPHEMERIS_TYPE": 0, "CLASSIFICATION_TYPE": "U", "NORAD_CAT_ID": 29765, "ELEMENT_SET_NO": 999, "REV_AT_EPOCH": 96723, "BSTAR": 9.6294137e-05, "MEAN_MOTION_DOT": 1.07e-06, "MEAN_MOTION_DDOT": 0}, "tle": {"line1": "1 29765U 99025BF  25344.79026991  .00000107  00000+0  96294-4 0  9996", "line2": "2 29765  98.8308   3.0370 0059834  97.9776  80.7185 14.02152651967237"}}, "geometry": {"type": "Point", "coordinates": [-179.23529329368134, -17.20805463837707]}}, {"type": "Feature", "properties": {"norad_id": 29766, "name": "FENGYUN 1C DEB", "group": "fengyun-1c-debris", "lat": 13.99452753978243, "lon": -67.18082527586084, "alt_km": 888.5353313297128, "timestamp": "2025-12-11T07:02:24.001329+00:00", "meta": {"OBJECT_NAME": "FENGYUN 1C DEB", "OBJECT_ID": "1999-025BG", "EPOCH": "2025-12-10T19:04:45.631776", "MEAN_MOTION": 13.97037643, "ECCENTRICITY": 0.01462247, "INCLINATION": 98.6853, "RA_OF_ASC_NODE": 294.5314, "ARG_OF_PERICENTER": 293.6947, "MEAN_ANOMALY": 93.8762, "EPHEMERIS_TYPE": 0, "CLASSIFICATION_TYPE": "U", "NORAD_CAT_ID": 29766, "ELEMENT_SET_NO": 999, "REV_AT_EPOCH": 95777, "BSTAR": 0.0024816745, "MEAN_MOTION_DOT": 3.75e-05, "MEAN_MOTION_DDOT": 0}, "tle": {"line1": "1 29766U 99025BG  25344.79497259  .00003750  00000+0  24817-2 0  9993", "line2": "2 29766  98.6853 294.5314 0146224 293.6947  93.8762 13.97037643957771"}}, "geometry": {"type": "Point", "coordinates": [-67.18082527586084, 13.99452753978243]}}, {"type": "Feature", "properties": {"norad_id": 29767, "name": "FENGYUN 1C DEB", "group": "fengyun-1c-debris", "lat": -50.98079404486313, "lon": 123.88046365555866, "alt_km": 1123.9149834155824, "timestamp": "2025-12-11T07:02:24.001340+00:00", "meta": {"OBJECT_NAME": "FENGYUN 1C DEB", "OBJECT_ID": "1999-025BH", "EPOCH": "2025-12-10T10:01:03.930240", "MEAN_MOTION": 14.03302616, "ECCENTRICITY": 0.03333252, "INCLINATION": 98.1989, "RA_OF_ASC_NODE": 313.3375, "ARG_OF_PERICENTER": 67.8418, "MEAN_ANOMALY": 60.2622, "EPHEMERIS_TYPE": 0, "CLASSIFICATION_TYPE": "U", "NORAD_CAT_ID": 29767, "ELEMENT_SET_NO": 999, "REV_AT_EPOCH": 95567, "BSTAR": 0.0028310018, "MEAN_MOTION_DOT": 7.206e-05, "MEAN_MOTION_DDOT": 0}, "tle": {"line1": "1 29767U 99025BH  25344.41740660  .00007206  00000+0  28310-2 0  9992", "line2": "2 29767  98.1989 313.3375 0333325  67.8418  60.2622 14.03302616955671"}}, "geometry": {"type": "Point", "coordinates": [123.88046365555866, -50.98079404486313]}}]}